[Satellite]
VERSION=1.1
NAME=ORBCOMM FM106 [+]
NICKNAME=ORBCOMM FM106 [+]
TLE1=1 40088U 14040C   17185.95326498 -.00000064  00000-0  23492-4 0  9992
TLE2=2 40088  47.0060 351.6193 0002081 342.4305  17.6507 14.54594971157973
